     2.10           G: GLONASS NAV DATA                     RINEX VERSION / TYPE
teqc  2015Jun23                         20210606 02:25:50UTCPGM / RUN BY / DATE
Linux 2.4.21-27.ELsmp|Opteron|gcc -static|Linux x86_64|=+   COMMENT
  2021     5    13    1.862645149231D-08                    CORR TO SYSTEM TIME
                                                            END OF HEADER
 5 21  5 14  8 45  0.0 7.170345634222D-05 9.094947017729D-13 3.060000000000D+04
   -1.005909423828D+04-1.066292762756D+00 1.862645149231D-09 0.000000000000D+00
    1.971303466797D+04 1.383126258850D+00-0.000000000000D+00 1.000000000000D+00
   -1.268472607422D+04 2.989147186279D+00 1.862645149231D-09 0.000000000000D+00
 4 21  5 14  8 45  0.0 8.673500269651D-05 1.818989403546D-12 3.060000000000D+04
   -1.840585791016D+04 5.182561874390D-01 2.793967723846D-09 0.000000000000D+00
    1.716048779297D+04-3.022289276123D-01 0.000000000000D+00 6.000000000000D+00
    4.217873046875D+03 3.518040657043D+00 0.000000000000D+00 0.000000000000D+00
 9 21  5 14  8 45  0.0-7.203780114651D-06 1.818989403546D-12 3.060000000000D+04
    1.128979931641D+04 4.455461502075D-01 9.313225746155D-10 0.000000000000D+00
    2.137422021484D+04 1.011952400208D+00 4.656612873077D-09-2.000000000000D+00
    8.048103027344D+03-3.325380325317D+00 1.862645149231D-09 0.000000000000D+00
15 21  5 14  8 45  0.0 1.038527116179D-04-0.000000000000D+00 3.060000000000D+04
   -7.184462890625D+03-8.543567657471D-01 0.000000000000D+00 0.000000000000D+00
    1.142273388672D+04-2.840576171875D+00-1.862645149231D-09 0.000000000000D+00
   -2.162813427734D+04-1.215470314026D+00 1.862645149231D-09 0.000000000000D+00
16 21  5 14  8 45  0.0-1.505389809608D-05 0.000000000000D+00 3.060000000000D+04
    3.786395507812D+03-2.665929794312D-01 9.313225746155D-10 0.000000000000D+00
    2.373980029297D+04-1.166267395020D+00 1.862645149231D-09-1.000000000000D+00
   -8.741461425781D+03-3.279662132263D+00 2.793967723846D-09 0.000000000000D+00
 5 21  5 14  9 15  0.0 7.170438766479D-05 9.094947017729D-13 3.240000000000D+04
   -1.136610302734D+04-4.010171890259D-01 1.862645149231D-09 0.000000000000D+00
    2.178039208984D+04 8.731985092163D-01 0.000000000000D+00 1.000000000000D+00
   -6.883459472656D+03 3.414822578430D+00 1.862645149231D-09 0.000000000000D+00
 4 21  5 14  9 15  0.0 8.673872798681D-05 1.818989403546D-12 3.240000000000D+04
   -1.705745507812D+04 9.390649795532D-01 2.793967723846D-09 0.000000000000D+00
    1.594582861328D+04-1.058930397034D+00 0.000000000000D+00 6.000000000000D+00
    1.030573828125D+04 3.202433586121D+00-0.000000000000D+00 0.000000000000D+00
 9 21  5 14  9 15  0.0-7.200986146927D-06 1.818989403546D-12 3.240000000000D+04
    1.191344677734D+04 2.070951461792D-01 1.862645149231D-09 0.000000000000D+00
    2.243906738281D+04 1.755390167236D-01 3.725290298462D-09-2.000000000000D+00
    1.827693359375D+03-3.541145324707D+00 2.793967723846D-09 0.000000000000D+00
15 21  5 14  9 15  0.0 1.038517802954D-04-0.000000000000D+00 3.240000000000D+04
   -9.164213867188D+03-1.334626197815D+00-0.000000000000D+00 0.000000000000D+00
    6.256037597656D+03-2.850016593933D+00-2.793967723846D-09 0.000000000000D+00
   -2.295014941406D+04-2.438735961914D-01 9.313225746155D-10 0.000000000000D+00
16 21  5 14  9 15  0.0-1.505203545094D-05 0.000000000000D+00 3.240000000000D+04
    2.871574218750D+03-7.718143463135D-01 9.313225746155D-10 0.000000000000D+00
    2.105318066406D+04-1.781819343567D+00 0.000000000000D+00-1.000000000000D+00
   -1.423399755859D+04-2.783809661865D+00 2.793967723846D-09 0.000000000000D+00
 6 21  5 14  9 15  0.0 1.979433000088D-04 0.000000000000D+00 3.375000000000D+04
    3.205494140625D+03-1.561233520508D+00 0.000000000000D+00 0.000000000000D+00
    1.374250927734D+04 2.454218864441D+00-0.000000000000D+00-4.000000000000D+00
   -2.125732617188D+04 1.349471092224D+00 2.793967723846D-09 0.000000000000D+00
 6 21  5 14  9 45  0.0 1.979451626539D-04 0.000000000000D+00 3.420000000000D+04
    8.941650390625D+02-1.002612113953D+00 9.313225746155D-10 0.000000000000D+00
    1.802581738281D+04 2.256468772888D+00-0.000000000000D+00-4.000000000000D+00
   -1.803866845703D+04 2.203592300415D+00 2.793967723846D-09 0.000000000000D+00
16 21  5 14  9 45  0.0-1.505110412836D-05 0.000000000000D+00 3.420000000000D+04
    9.575805664062D+02-1.360219001770D+00 0.000000000000D+00 0.000000000000D+00
    1.747646630859D+04-2.146711349487D+00-0.000000000000D+00-1.000000000000D+00
   -1.863442333984D+04-2.073912620544D+00 2.793967723846D-09 0.000000000000D+00
 4 21  5 14  9 45  0.0 8.674245327711D-05 1.818989403546D-12 3.420000000000D+04
   -1.518147509766D+04 1.100991249084D+00 2.793967723846D-09 0.000000000000D+00
    1.334086572266D+04-1.827886581421D+00 0.000000000000D+00 6.000000000000D+00
    1.559816650391D+04 2.640018463135D+00-9.313225746155D-10 0.000000000000D+00
 5 21  5 14  9 45  0.0 7.170625030994D-05 9.094947017729D-13 3.420000000000D+04
   -1.158629394531D+04 1.259641647339D-01 2.793967723846D-09 0.000000000000D+00
    2.272992285156D+04 1.534557342529D-01-0.000000000000D+00 1.000000000000D+00
   -5.502055664062D+02 3.576454162598D+00 9.313225746155D-10 0.000000000000D+00
 9 21  5 14  9 45  0.0-7.199123501778D-06 1.818989403546D-12 3.420000000000D+04
    1.190066748047D+04-2.544031143188D-01 1.862645149231D-09 0.000000000000D+00
    2.205518310547D+04-5.797090530396D-01 1.862645149231D-09-2.000000000000D+00
   -4.534605957031D+03-3.481950759888D+00 2.793967723846D-09 0.000000000000D+00
10 21  5 14  9 45  0.0-7.055886089802D-05 0.000000000000D+00 3.420000000000D+04
    1.679765478516D+04 1.003828048706D+00 2.793967723846D-09 0.000000000000D+00
    1.523520996094D+04 1.261984825134D+00 3.725290298462D-09-7.000000000000D+00
    1.173867480469D+04-3.065456390381D+00 1.862645149231D-09 0.000000000000D+00
 6 21  5 14 10 15  0.0 1.979470252991D-04 0.000000000000D+00 3.600000000000D+04
   -4.211967773438D+02-4.724969863892D-01 1.862645149231D-09 0.000000000000D+00
    2.169675244141D+04 1.778488159180D+00-0.000000000000D+00-4.000000000000D+00
   -1.342683007812D+04 2.887428283691D+00 1.862645149231D-09 0.000000000000D+00
 4 21  5 14 10 15  0.0 8.674617856741D-05 1.818989403546D-12 3.600000000000D+04
   -1.324873828125D+04 1.006328582764D+00 1.862645149231D-09 0.000000000000D+00
    9.426903808594D+03-2.494831085205D+00 0.000000000000D+00 6.000000000000D+00
    1.968762109375D+04 1.874484062195D+00-9.313225746155D-10 0.000000000000D+00
 5 21  5 14 10 15  0.0 7.170718163252D-05 9.094947017729D-13 3.600000000000D+04
   -1.104166943359D+04 4.392328262329D-01 2.793967723846D-09 0.000000000000D+00
    2.226054589844D+04-6.860246658325D-01-0.000000000000D+00 1.000000000000D+00
    5.825591796875D+03 3.461831092834D+00 0.000000000000D+00 0.000000000000D+00
 9 21  5 14 10 15  0.0-7.196329534054D-06 1.818989403546D-12 3.600000000000D+04
    1.090068652344D+04-8.763523101807D-01 1.862645149231D-09 0.000000000000D+00
    2.045970800781D+04-1.156709671021D+00 9.313225746155D-10-2.000000000000D+00
   -1.054457958984D+04-3.152226448059D+00 2.793967723846D-09 0.000000000000D+00
10 21  5 14 10 15  0.0-7.056724280119D-05 0.000000000000D+00 3.600000000000D+04
    1.831846386719D+04 6.440649032593D-01 2.793967723846D-09 0.000000000000D+00
    1.681420605469D+04 4.994821548462D-01 2.793967723846D-09-7.000000000000D+00
    5.839616210938D+03-3.446595191956D+00 2.793967723846D-09 0.000000000000D+00
16 21  5 14 10 15  0.0-1.505110412836D-05 0.000000000000D+00 3.600000000000D+04
   -2.011795410156D+03-1.926227569580D+00-0.000000000000D+00 0.000000000000D+00
    1.349419873047D+04-2.231152534485D+00-1.862645149231D-09-1.000000000000D+00
   -2.160364208984D+04-1.203697204590D+00 1.862645149231D-09 0.000000000000D+00
 6 21  5 14 10 45  0.0 1.979479566216D-04 0.000000000000D+00 3.780000000000D+04
   -8.841831054688D+02-7.043743133545D-02 1.862645149231D-09 0.000000000000D+00
    2.428921582031D+04 1.069829940796D+00-0.000000000000D+00-4.000000000000D+00
   -7.778079101562D+03 3.348255157471D+00 1.862645149231D-09 0.000000000000D+00
 5 21  5 14 10 45  0.0 7.170904427767D-05 9.094947017729D-13 3.780000000000D+04
   -1.015565820312D+04 5.030336380005D-01 2.793967723846D-09 0.000000000000D+00
    2.025544042969D+04-1.533365249634D+00-0.000000000000D+00 1.000000000000D+00
    1.175167480469D+04 3.080046653748D+00-0.000000000000D+00 0.000000000000D+00
 9 21  5 14 10 45  0.0-7.193535566330D-06 1.818989403546D-12 3.780000000000D+04
    8.705515625000D+03-1.564908027649D+00 9.313225746155D-10 0.000000000000D+00
    1.803815283203D+04-1.489928245544D+00-0.000000000000D+00-2.000000000000D+00
   -1.573537548828D+04-2.577742576599D+00 2.793967723846D-09 0.000000000000D+00
10 21  5 14 10 45  0.0-7.056724280119D-05 0.000000000000D+00 3.780000000000D+04
    1.897914648438D+04 5.709648132324D-02 2.793967723846D-09 0.000000000000D+00
    1.709087890625D+04-1.678056716919D-01 1.862645149231D-09-7.000000000000D+00
   -5.092866210938D+02-3.562109947205D+00 2.793967723846D-09 0.000000000000D+00
16 21  5 14 10 45  0.0-1.505017280579D-05 0.000000000000D+00 3.780000000000D+04
   -5.899122070312D+03-2.363278388977D+00-9.313225746155D-10 0.000000000000D+00
    9.604619140625D+03-2.049840927124D+00-1.862645149231D-09-1.000000000000D+00
   -2.291104101562D+04-2.392530441284D-01 9.313225746155D-10 0.000000000000D+00
 7 21  5 14 10 45  0.0-4.247575998306D-05-0.000000000000D+00 3.816000000000D+04
    7.114484375000D+03-5.326967239380D-01 0.000000000000D+00 0.000000000000D+00
    1.326665966797D+04 2.774990081787D+00-0.000000000000D+00 5.000000000000D+00
   -2.056150683594D+04 1.598896026611D+00 2.793967723846D-09 0.000000000000D+00
19 21  5 14 10 45  0.0-1.436527818441D-04-9.094947017729D-13 3.927000000000D+04
   -2.145892626953D+04-1.150677680969D+00 0.000000000000D+00 0.000000000000D+00
    1.027895312500D+04 5.685281753540D-01-1.862645149231D-09 3.000000000000D+00
    9.191552734375D+03-3.320280075073D+00-1.862645149231D-09 0.000000000000D+00
